QIANFAN-57              
1 62787U 25016C   25238.61662991  .00000116  00000+0  16053-3 0  9999
2 62787  88.9815 114.3592 0002680  82.1250 278.0205 13.50961467 32607
QIANFAN-58              
1 62788U 25016D   25238.51378414  .00000103  00000+0  14178-3 0  9995
2 62788  88.9784 114.2350 0012504 302.2860  57.7079 13.50960556 32635
QIANFAN-59              
1 62789U 25016E   25238.60016606  .00000099  00000+0  13537-3 0  9990
2 62789  88.9807 114.2710 0013486 305.1011  54.8875 13.50964791 32640
QIANFAN-60              
1 62790U 25016F   25238.51771716  .00000102  00000+0  13956-3 0  9992
2 62790  88.9789 114.2795 0013902 302.7731  57.2080 13.50962027 32611
QIANFAN-61              
1 62791U 25016G   25238.60426651  .00000112  00000+0  15571-3 0  9994
2 62791  88.9856 114.3549 0013313 301.1682  58.8163 13.50967702 32646
QIANFAN-62              
1 62792U 25016H   25238.60828443  .00000110  00000+0  15158-3 0  9999
2 62792  88.9802 114.2814 0014701 301.0583  58.9124 13.50961673 32631
QIANFAN-63              
1 62793U 25016J   25238.54662718  .00000107  00000+0  14683-3 0  9992
2 62793  88.9809 114.2291 0014636 306.2835  53.6963 13.50958756 32666
QIANFAN-64              
1 62794U 25016K   25238.61238723  .00000111  00000+0  15371-3 0  9996
2 62794  88.9796 114.2170 0012307 299.9831  60.0098 13.50961290 32663
